NORAD_CAT_ID,OBJECT_NAME,OBJECT_TYPE,EPOCH,MEAN_MOTION,ECCENTRICITY,INCLINATION,RA_OF_ASC_NODE,ARG_OF_PERICENTER,MEAN_ANOMALY,BSTAR,MEAN_MOTION_DOT,MEAN_MOTION_DDOT,TLE_LINE0,TLE_LINE1,TLE_LINE2,SEMIMAJOR_AXIS,PERIOD,APOGEE,PERIGEE,DECAYED
53888.0,STARLINK-5034,PAYLOAD,2024-08-16 18:31:23,15.08845977,0.0003085,53.2161,2.7767,82.3572,277.777,0.00060629,9.376e-05,0.0,0 STARLINK-5034,1 53888U 22119C   24229.77180038  .00009376  00000-0  60629-3 0  9991,2 53888  53.2161   2.7767 0003085  82.3572 277.7770 15.08845977105225,6917.862,95.437,541.861,537.593,0.0
53888.0,STARLINK-5034,PAYLOAD,2024-08-17 18:22:10,15.08839772,0.0002459,53.2169,358.3159,71.9642,288.1618,0.0003245,4.88e-05,0.0,0 STARLINK-5034,1 53888U 22119C   24230.76540480  .00004880  00000-0  32450-3 0  9999,2 53888  53.2169 358.3159 0002459  71.9642 288.1618 15.08839772105373,6917.881,95.438,541.447,538.045,0.0
53888.0,STARLINK-5034,PAYLOAD,2024-08-18 18:12:57,15.08854133,0.0001485,53.2192,353.8511,90.131,269.9852,0.00055365,8.538e-05,0.0,0 STARLINK-5034,1 53888U 22119C   24231.75899698  .00008538  00000-0  55365-3 0  9991,2 53888  53.2192 353.8511 0001485  90.1310 269.9852 15.08854133105942,6917.837,95.437,540.729,538.675,0.0
53888.0,STARLINK-5034,PAYLOAD,2024-08-20 13:08:22,15.08851244,0.0001473,53.2185,345.8264,106.3572,253.7583,0.00039447,5.997e-05,0.0,0 STARLINK-5034,1 53888U 22119C   24233.54748086  .00005997  00000-0  39447-3 0  9993,2 53888  53.2185 345.8264 0001473 106.3572 253.7583 15.08851244105792,6917.846,95.437,540.73,538.692,0.0
53888.0,STARLINK-5034,PAYLOAD,2024-08-21 12:59:09,15.08845633,0.000131,53.2166,341.3653,107.1863,252.9273,1.076e-05,-1.17e-06,0.0,0 STARLINK-5034,1 53888U 22119C   24234.54107927 -.00000117  00000-0  10760-4 0  9995,2 53888  53.2166 341.3653 0001310 107.1863 252.9273 15.08845633105945,6917.863,95.437,540.634,538.822,0.0
53888.0,STARLINK-5034,PAYLOAD,2024-08-21 14:34:32,15.08843466,0.0001208,53.2165,341.0679,101.4965,258.6162,-3.4398e-05,-8.35e-06,0.0,0 STARLINK-5034,1 53888U 22119C   24234.60732039 -.00000835  00000-0 -34398-4 0  9991,2 53888  53.2165 341.0679 0001208 101.4965 258.6162 15.08843466106375,6917.87,95.437,540.57,538.899,0.0
53888.0,STARLINK-5034,PAYLOAD,2024-08-21 17:45:18,15.08843174,0.0001205,53.2167,340.4734,99.4974,260.6154,-8.2706e-06,-4.19e-06,0.0,0 STARLINK-5034,1 53888U 22119C   24234.73980164 -.00000419  00000-0 -82706-5 0  9994,2 53888  53.2167 340.4734 0001205  99.4974 260.6154 15.08843174106397,6917.871,95.437,540.569,538.902,0.0
